CCSDS_OMM_VERS = 2.0
CREATION_DATE  = 
ORIGINATOR     = 

OBJECT_NAME    = STARLINK-36587
OBJECT_ID      = 2026-014A
CENTER_NAME    = EARTH
REF_FRAME      = TEME
TIME_SYSTEM    = UTC
MEAN_ELEMENT_THEORY = SGP/SGP4

EPOCH          = 2026-02-18T21:00:38.541312
MEAN_MOTION    = 15.80894746
ECCENTRICITY   = .0001351
INCLINATION    = 97.2825
RA_OF_ASC_NODE = 293.9117
ARG_OF_PERICENTER = 60.1143
MEAN_ANOMALY   = 300.0259

EPHEMERIS_TYPE = 0
CLASSIFICATION_TYPE = U
NORAD_CAT_ID   = 67532
ELEMENT_SET_NO = 999
REV_AT_EPOCH   = 561
BSTAR          = .13956E-2
MEAN_MOTION_DOT = .276844E-2
MEAN_MOTION_DDOT = 0

CCSDS_OMM_VERS = 2.0
CREATION_DATE  = 
ORIGINATOR     = 

OBJECT_NAME    = STARLINK-36417
OBJECT_ID      = 2026-014B
CENTER_NAME    = EARTH
REF_FRAME      = TEME
TIME_SYSTEM    = UTC
MEAN_ELEMENT_THEORY = SGP/SGP4

EPOCH          = 2026-02-18T16:02:20.400288
MEAN_MOTION    = 15.75229506
ECCENTRICITY   = .0002241
INCLINATION    = 97.2829
RA_OF_ASC_NODE = 293.5792
ARG_OF_PERICENTER = 37.9055
MEAN_ANOMALY   = 322.2367

EPHEMERIS_TYPE = 0
CLASSIFICATION_TYPE = U
NORAD_CAT_ID   = 67533
ELEMENT_SET_NO = 999
REV_AT_EPOCH   = 557
BSTAR          = .11541E-2
MEAN_MOTION_DOT = .175912E-2
MEAN_MOTION_DDOT = 0

CCSDS_OMM_VERS = 2.0
CREATION_DATE  = 
ORIGINATOR     = 

OBJECT_NAME    = STARLINK-36576
OBJECT_ID      = 2026-014C
CENTER_NAME    = EARTH
REF_FRAME      = TEME
TIME_SYSTEM    = UTC
MEAN_ELEMENT_THEORY = SGP/SGP4

EPOCH          = 2026-02-18T20:00:01.999008
MEAN_MOTION    = 15.75272655
ECCENTRICITY   = .0001439
INCLINATION    = 97.2835
RA_OF_ASC_NODE = 293.8415
ARG_OF_PERICENTER = 99.2522
MEAN_ANOMALY   = 320.2459

EPHEMERIS_TYPE = 0
CLASSIFICATION_TYPE = U
NORAD_CAT_ID   = 67534
ELEMENT_SET_NO = 999
REV_AT_EPOCH   = 565
BSTAR          = -.11444E-2
MEAN_MOTION_DOT = -.16811E-2
MEAN_MOTION_DDOT = 0

CCSDS_OMM_VERS = 2.0
CREATION_DATE  = 
ORIGINATOR     = 

OBJECT_NAME    = STARLINK-36574
OBJECT_ID      = 2026-014D
CENTER_NAME    = EARTH
REF_FRAME      = TEME
TIME_SYSTEM    = UTC
MEAN_ELEMENT_THEORY = SGP/SGP4

EPOCH          = 2026-02-18T20:00:01.999008
MEAN_MOTION    = 15.75492587
ECCENTRICITY   = .0001446
INCLINATION    = 97.2831
RA_OF_ASC_NODE = 293.8697
ARG_OF_PERICENTER = 81.5964
MEAN_ANOMALY   = 43.8085

EPHEMERIS_TYPE = 0
CLASSIFICATION_TYPE = U
NORAD_CAT_ID   = 67535
ELEMENT_SET_NO = 999
REV_AT_EPOCH   = 565
BSTAR          = -.38493E-2
MEAN_MOTION_DOT = -.546239E-2
MEAN_MOTION_DDOT = 0

CCSDS_OMM_VERS = 2.0
CREATION_DATE  = 
ORIGINATOR     = 

OBJECT_NAME    = STARLINK-36572
OBJECT_ID      = 2026-014E
CENTER_NAME    = EARTH
REF_FRAME      = TEME
TIME_SYSTEM    = UTC
MEAN_ELEMENT_THEORY = SGP/SGP4

EPOCH          = 2026-02-18T15:42:31.124160
MEAN_MOTION    = 15.75235663
ECCENTRICITY   = .0001072
INCLINATION    = 97.2829
RA_OF_ASC_NODE = 293.5987
ARG_OF_PERICENTER = 89.0048
MEAN_ANOMALY   = 271.1340

EPHEMERIS_TYPE = 0
CLASSIFICATION_TYPE = U
NORAD_CAT_ID   = 67536
ELEMENT_SET_NO = 999
REV_AT_EPOCH   = 557
BSTAR          = .11737E-2
MEAN_MOTION_DOT = .178999E-2
MEAN_MOTION_DDOT = 0

CCSDS_OMM_VERS = 2.0
CREATION_DATE  = 
ORIGINATOR     = 

OBJECT_NAME    = STARLINK-36561
OBJECT_ID      = 2026-014F
CENTER_NAME    = EARTH
REF_FRAME      = TEME
TIME_SYSTEM    = UTC
MEAN_ELEMENT_THEORY = SGP/SGP4

EPOCH          = 2026-02-18T15:51:09.512928
MEAN_MOTION    = 15.75224382
ECCENTRICITY   = .0001386
INCLINATION    = 97.2839
RA_OF_ASC_NODE = 293.5885
ARG_OF_PERICENTER = 102.8638
MEAN_ANOMALY   = 257.2782

EPHEMERIS_TYPE = 0
CLASSIFICATION_TYPE = U
NORAD_CAT_ID   = 67537
ELEMENT_SET_NO = 999
REV_AT_EPOCH   = 557
BSTAR          = .83539E-3
MEAN_MOTION_DOT = .126525E-2
MEAN_MOTION_DDOT = 0

CCSDS_OMM_VERS = 2.0
CREATION_DATE  = 
ORIGINATOR     = 

OBJECT_NAME    = STARLINK-36397
OBJECT_ID      = 2026-014G
CENTER_NAME    = EARTH
REF_FRAME      = TEME
TIME_SYSTEM    = UTC
MEAN_ELEMENT_THEORY = SGP/SGP4

EPOCH          = 2026-02-18T15:56:44.971296
MEAN_MOTION    = 15.75233424
ECCENTRICITY   = .0001294
INCLINATION    = 97.2841
RA_OF_ASC_NODE = 293.5845
ARG_OF_PERICENTER = 43.2333
MEAN_ANOMALY   = 316.9033

EPHEMERIS_TYPE = 0
CLASSIFICATION_TYPE = U
NORAD_CAT_ID   = 67538
ELEMENT_SET_NO = 999
REV_AT_EPOCH   = 557
BSTAR          = .12391E-2
MEAN_MOTION_DOT = .189203E-2
MEAN_MOTION_DDOT = 0

CCSDS_OMM_VERS = 2.0
CREATION_DATE  = 
ORIGINATOR     = 

OBJECT_NAME    = STARLINK-36573
OBJECT_ID      = 2026-014H
CENTER_NAME    = EARTH
REF_FRAME      = TEME
TIME_SYSTEM    = UTC
MEAN_ELEMENT_THEORY = SGP/SGP4

EPOCH          = 2026-02-18T20:00:01.999008
MEAN_MOTION    = 15.75212564
ECCENTRICITY   = .0001573
INCLINATION    = 97.2835
RA_OF_ASC_NODE = 293.8582
ARG_OF_PERICENTER = 93.5733
MEAN_ANOMALY   = 9.9561

EPHEMERIS_TYPE = 0
CLASSIFICATION_TYPE = U
NORAD_CAT_ID   = 67539
ELEMENT_SET_NO = 999
REV_AT_EPOCH   = 565
BSTAR          = -.79825E-3
MEAN_MOTION_DOT = -.117688E-2
MEAN_MOTION_DDOT = 0

CCSDS_OMM_VERS = 2.0
CREATION_DATE  = 
ORIGINATOR     = 

OBJECT_NAME    = STARLINK-36585
OBJECT_ID      = 2026-014J
CENTER_NAME    = EARTH
REF_FRAME      = TEME
TIME_SYSTEM    = UTC
MEAN_ELEMENT_THEORY = SGP/SGP4

EPOCH          = 2026-02-18T15:45:03.591648
MEAN_MOTION    = 15.75218870
ECCENTRICITY   = .0001003
INCLINATION    = 97.2843
RA_OF_ASC_NODE = 293.5934
ARG_OF_PERICENTER = 44.7118
MEAN_ANOMALY   = 315.4228

EPHEMERIS_TYPE = 0
CLASSIFICATION_TYPE = U
NORAD_CAT_ID   = 67540
ELEMENT_SET_NO = 999
REV_AT_EPOCH   = 557
BSTAR          = .88884E-3
MEAN_MOTION_DOT = .134724E-2
MEAN_MOTION_DDOT = 0

CCSDS_OMM_VERS = 2.0
CREATION_DATE  = 
ORIGINATOR     = 

OBJECT_NAME    = STARLINK-36579
OBJECT_ID      = 2026-014K
CENTER_NAME    = EARTH
REF_FRAME      = TEME
TIME_SYSTEM    = UTC
MEAN_ELEMENT_THEORY = SGP/SGP4

EPOCH          = 2026-02-18T18:36:50.383296
MEAN_MOTION    = 15.75233224
ECCENTRICITY   = .0000981
INCLINATION    = 97.2838
RA_OF_ASC_NODE = 293.7384
ARG_OF_PERICENTER = 62.6475
MEAN_ANOMALY   = 297.4889

EPHEMERIS_TYPE = 0
CLASSIFICATION_TYPE = U
NORAD_CAT_ID   = 67541
ELEMENT_SET_NO = 999
REV_AT_EPOCH   = 559
BSTAR          = .1324E-2
MEAN_MOTION_DOT = .202487E-2
MEAN_MOTION_DDOT = 0

CCSDS_OMM_VERS = 2.0
CREATION_DATE  = 
ORIGINATOR     = 

OBJECT_NAME    = STARLINK-35934
OBJECT_ID      = 2026-014L
CENTER_NAME    = EARTH
REF_FRAME      = TEME
TIME_SYSTEM    = UTC
MEAN_ELEMENT_THEORY = SGP/SGP4

EPOCH          = 2026-02-18T20:00:01.999008
MEAN_MOTION    = 15.75159162
ECCENTRICITY   = .000168
INCLINATION    = 97.2837
RA_OF_ASC_NODE = 293.8830
ARG_OF_PERICENTER = 97.3702
MEAN_ANOMALY   = 62.1378

EPHEMERIS_TYPE = 0
CLASSIFICATION_TYPE = U
NORAD_CAT_ID   = 67542
ELEMENT_SET_NO = 999
REV_AT_EPOCH   = 564
BSTAR          = .32597E-3
MEAN_MOTION_DOT = .48704E-3
MEAN_MOTION_DDOT = 0

CCSDS_OMM_VERS = 2.0
CREATION_DATE  = 
ORIGINATOR     = 

OBJECT_NAME    = STARLINK-36581
OBJECT_ID      = 2026-014M
CENTER_NAME    = EARTH
REF_FRAME      = TEME
TIME_SYSTEM    = UTC
MEAN_ELEMENT_THEORY = SGP/SGP4

EPOCH          = 2026-02-18T20:00:01.999008
MEAN_MOTION    = 15.75249918
ECCENTRICITY   = .0001463
INCLINATION    = 97.2836
RA_OF_ASC_NODE = 293.8623
ARG_OF_PERICENTER = 89.9922
MEAN_ANOMALY   = 25.5102

EPHEMERIS_TYPE = 0
CLASSIFICATION_TYPE = U
NORAD_CAT_ID   = 67543
ELEMENT_SET_NO = 999
REV_AT_EPOCH   = 565
BSTAR          = -.11581E-2
MEAN_MOTION_DOT = -.169917E-2
MEAN_MOTION_DDOT = 0

