STARLINK-36587          
1 67532U 26014A   26049.87544608  .00276844  00000+0  13956-2 0  9995
2 67532  97.2825 293.9117 0001351  60.1143 300.0259 15.80894746  5618
STARLINK-36417          
1 67533U 26014B   26049.66829167  .00175912  00000+0  11541-2 0  9991
2 67533  97.2829 293.5792 0002241  37.9055 322.2367 15.75229506  5572
STARLINK-36576          
1 67534U 26014C   26049.83335647 -.00168110  00000+0 -11444-2 0  9992
2 67534  97.2835 293.8415 0001439  99.2522 320.2459 15.75272655  5655
STARLINK-36574          
1 67535U 26014D   26049.83335647 -.00546239  00000+0 -38493-2 0  9998
2 67535  97.2831 293.8697 0001446  81.5964  43.8085 15.75492587  5657
STARLINK-36572          
1 67536U 26014E   26049.65452690  .00178999  00000+0  11737-2 0  9991
2 67536  97.2829 293.5987 0001072  89.0048 271.1340 15.75235663  5576
STARLINK-36561          
1 67537U 26014F   26049.66052677  .00126525  00000+0  83539-3 0  9992
2 67537  97.2839 293.5885 0001386 102.8638 257.2782 15.75224382  5573
STARLINK-36397          
1 67538U 26014G   26049.66440939  .00189203  00000+0  12391-2 0  9994
2 67538  97.2841 293.5845 0001294  43.2333 316.9033 15.75233424  5570
STARLINK-36573          
1 67539U 26014H   26049.83335647 -.00117688  00000+0 -79825-3 0  9999
2 67539  97.2835 293.8582 0001573  93.5733   9.9561 15.75212564  5653
STARLINK-36585          
1 67540U 26014J   26049.65629157  .00134724  00000+0  88884-3 0  9996
2 67540  97.2843 293.5934 0001003  44.7118 315.4228 15.75218870  5577
STARLINK-36579          
1 67541U 26014K   26049.77558314  .00202487  00000+0  13240-2 0  9991
2 67541  97.2838 293.7384 0000981  62.6475 297.4889 15.75233224  5596
STARLINK-35934          
1 67542U 26014L   26049.83335647  .00048704  00000+0  32597-3 0  9998
2 67542  97.2837 293.8830 0001680  97.3702  62.1378 15.75159162  5642
STARLINK-36581          
1 67543U 26014M   26049.83335647 -.00169917  00000+0 -11581-2 0  9990
2 67543  97.2836 293.8623 0001463  89.9922  25.5102 15.75249918  5650
